STARLINK-31959          
1 59925U 24106D   25308.71892054 -.00001103  00000+0 -30584-4 0  9997
2 59925  43.0005 314.4507 0001056 278.8534  81.2198 15.27576794 81457
STARLINK-31957          
1 59926U 24106E   25307.73250595  .00002778  00000+0  11041-3 0  9990
2 59926  43.0010 323.4902 0001843 281.0136  79.0508 15.27588988 81314
STARLINK-31968          
1 59927U 24106F   25308.72102666 -.00002282  00000+0 -73445-4 0  9995
2 59927  43.0019 318.0103 0000639 243.3440 116.7346 15.27573159 81467
STARLINK-31970          
1 59928U 24106G   25309.00698307 -.00000143  00000+0  42967-5 0  9999
2 59928  43.0029 316.7145 0000301   5.0228 355.0627 15.27578064 81508
STARLINK-31932          
1 59929U 24106H   25307.46130104 -.00068187  00000+0 -24921-2 0  9994
2 59929  42.9989 322.1882 0000696 220.4820 139.5980 15.27569636 81253
STARLINK-31956          
1 59930U 24106J   25309.00054631  .00000153  00000+0  15067-4 0  9998
2 59930  43.0058 316.6636 0000799 282.4569  77.6193 15.27585835 81450
STARLINK-31960          
1 59931U 24106K   25308.72358854  .00002146  00000+0  87441-4 0  9990
2 59931  43.0015 318.0271 0001189 281.8432  78.2287 15.27591631 81419
STARLINK-31432          
1 59932U 24106L   25308.76085123 -.00199946  00000+0 -74737-2 0  9990
2 59932  43.0011 318.3166 0001701 249.6449 110.4220 15.27493443 81410
STARLINK-31853          
1 59933U 24106M   25309.00441323 -.00000301  00000+0 -14376-5 0  9999
2 59933  43.0035 316.6930 0000128  72.1980 287.8886 15.27583196 81454
STARLINK-31971          
1 59934U 24106N   25308.70749241  .00000369  00000+0  22934-4 0  9996
2 59934  43.0033 315.1595 0000808 268.2674  91.8085 15.27579272 81327
STARLINK-31962          
1 59936U 24106Q   25309.28780890  .00001796  00000+0  74808-4 0  9999
2 59936  43.0031 315.3827 0001405 274.5060  85.5631 15.27572229 81490
STARLINK-31879          
1 59937U 24106R   25307.33648218  .00003488  00000+0  13616-3 0  9990
2 59937  42.9986 326.5309 0000375 114.1076 245.9815 15.27591630 81244
STARLINK-31876          
1 59938U 24106S   25308.73515237  .00000733  00000+0  36160-4 0  9990
2 59938  43.0008 318.1105 0001140 277.6321  82.4401 15.27578409 81426
STARLINK-31955          
1 59939U 24106T   25308.72744113  .00002112  00000+0  86241-4 0  9995
2 59939  42.9977 318.0521 0001040 277.9089  82.1645 15.27580864 81452
STARLINK-31946          
1 59940U 24106U   25309.29421156  .00000067  00000+0  11963-4 0  9995
2 59940  43.0012 315.4263 0000962 148.6306 211.4603 15.27582488 72127
STARLINK-31948          
1 59941U 24106V   25309.28826984  .00001151  00000+0  51342-4 0  9993
2 59941  43.0014 311.8184 0000567 183.6284 176.4564 15.27579638 81531
STARLINK-31900          
1 59942U 24106W   25308.71717757  .00004199  00000+0  16216-3 0  9993
2 59942  43.0010 317.9825 0000153 241.9882 118.0954 15.27552496 81415
STARLINK-31973          
1 59943U 24106X   25308.75699773 -.00000229  00000+0  11900-5 0  9993
2 59943  43.0027 318.2856 0001202 291.6291  68.4433 15.27580499 81418
STARLINK-31966          
1 59944U 24106Y   25308.75314579  .00000153  00000+0  15083-4 0  9992
2 59944  43.0041 318.2476 0000546 286.8723  73.2069 15.27581104 81467
STARLINK-11145 [DTC]    
1 59945U 24107A   25308.97370364 -.00000662  00000+0 -60589-6 0  9992
2 59945  53.1567 146.3832 0001247  76.8743 283.2414 15.69698942 82550
STARLINK-11113 [DTC]    
1 59947U 24107C   25308.97851211  .00002983  00000+0  29512-4 0  9994
2 59947  53.1572 145.6686 0001680  90.9111 269.2099 15.69683508 82560
STARLINK-11123 [DTC]    
1 59948U 24107D   25308.83655270 -.00000474  00000+0  95119-6 0  9999
2 59948  53.1587 146.9460 0001281  89.4923 270.6241 15.69699242 82592
STARLINK-11138 [DTC]    
1 59949U 24107E   25309.26260637  .00001248  00000+0  15154-4 0  9995
2 59949  53.1564 144.6144 0000961 103.9059 256.2066 15.69710714 82669
STARLINK-11130 [DTC]    
1 59950U 24107F   25308.83164494 -.00000463  00000+0  10326-5 0  9999
2 59950  53.1586 146.9143 0000660  73.3226 286.7865 15.69704885 82534
STARLINK-11124 [DTC]    
1 59952U 24107H   25309.26752040 -.00000241  00000+0  28726-5 0  9996
2 59952  53.1577 144.6498 0001131  85.6066 274.5081 15.69702183 82675
STARLINK-11143 [DTC]    
1 59953U 24107J   25309.25769975  .00000641  00000+0  10144-4 0  9998
2 59953  53.1569 144.5851 0001006  85.5428 274.5705 15.69713242 82605
STARLINK-11133 [DTC]    
1 59954U 24107K   25309.25279376  .00001851  00000+0  20129-4 0  9998
2 59954  53.1563 144.5526 0001274  93.2068 266.9095 15.69718063 82605
STARLINK-11144 [DTC]    
1 59955U 24107L   25309.24788700  .00000937  00000+0  12576-4 0  9995
2 59955  53.1642 144.5266 0000311 109.5848 250.5203 15.69716542 82669
STARLINK-11134 [DTC]    
1 59956U 24107M   25308.98831551 -.00000975  00000+0 -31994-5 0  9999
2 59956  53.1584 145.7447 0000489  85.7481 274.3593 15.69700285 82497
STARLINK-11142 [DTC]    
1 59957U 24107N   25308.98341048 -.00000289  00000+0  24691-5 0  9990
2 59957  53.1587 145.7105 0000962  96.0930 264.0198 15.69699832 82573
