OBJECT_NAME,OBJECT_ID,EPOCH,MEAN_MOTION,ECCENTRICITY,INCLINATION,RA_OF_ASC_NODE,ARG_OF_PERICENTER,MEAN_ANOMALY,EPHEMERIS_TYPE,CLASSIFICATION_TYPE,NORAD_CAT_ID,ELEMENT_SET_NO,REV_AT_EPOCH,BSTAR,MEAN_MOTION_DOT,MEAN_MOTION_DDOT
STARLINK-31959,2024-106D,2025-11-04T17:15:14.734656,15.27576794,.00010561,43.0005,314.4507,278.8534,81.2198,0,U,59925,999,8145,-.30583652E-4,-.1103E-4,0
STARLINK-31957,2024-106E,2025-11-03T17:34:48.514080,15.27588988,.00018436,43.0010,323.4902,281.0136,79.0508,0,U,59926,999,8131,.11041318E-3,.2778E-4,0
STARLINK-31968,2024-106F,2025-11-04T17:18:16.703424,15.27573159,.00006399,43.0019,318.0103,243.3440,116.7346,0,U,59927,999,8146,-.73445313E-4,-.2282E-4,0
STARLINK-31970,2024-106G,2025-11-05T00:10:03.337248,15.27578064,.00003015,43.0029,316.7145,5.0228,355.0627,0,U,59928,999,8150,.4296657E-5,-.143E-5,0
STARLINK-31932,2024-106H,2025-11-03T11:04:16.409856,15.27569636,.0000696,42.9989,322.1882,220.4820,139.5980,0,U,59929,999,8125,-.24920734E-2,-.68187E-3,0
STARLINK-31956,2024-106J,2025-11-05T00:00:47.201184,15.27585835,.0000799,43.0058,316.6636,282.4569,77.6193,0,U,59930,999,8145,.15067363E-4,.153E-5,0
STARLINK-31960,2024-106K,2025-11-04T17:21:58.049856,15.27591631,.00011896,43.0015,318.0271,281.8432,78.2287,0,U,59931,999,8141,.8744142E-4,.2146E-4,0
STARLINK-31432,2024-106L,2025-11-04T18:15:37.546272,15.27493443,.00017014,43.0011,318.3166,249.6449,110.4220,0,U,59932,999,8141,-.74737455E-2,-.199946E-2,0
STARLINK-31853,2024-106M,2025-11-05T00:06:21.303072,15.27583196,.00001281,43.0035,316.6930,72.1980,287.8886,0,U,59933,999,8145,-.1437618E-5,-.301E-5,0
STARLINK-31971,2024-106N,2025-11-04T16:58:47.344224,15.27579272,.00008083,43.0033,315.1595,268.2674,91.8085,0,U,59934,999,8132,.22933935E-4,.369E-5,0
STARLINK-31962,2024-106Q,2025-11-05T06:54:26.688960,15.27572229,.00014055,43.0031,315.3827,274.5060,85.5631,0,U,59936,999,8149,.74808186E-4,.1796E-4,0
STARLINK-31879,2024-106R,2025-11-03T08:04:32.060352,15.27591630,.0000375,42.9986,326.5309,114.1076,245.9815,0,U,59937,999,8124,.13615942E-3,.3488E-4,0
STARLINK-31876,2024-106S,2025-11-04T17:38:37.164768,15.27578409,.00011407,43.0008,318.1105,277.6321,82.4401,0,U,59938,999,8142,.36159907E-4,.733E-5,0
STARLINK-31955,2024-106T,2025-11-04T17:27:30.913632,15.27580864,.00010408,42.9977,318.0521,277.9089,82.1645,0,U,59939,999,8145,.86240583E-4,.2112E-4,0
STARLINK-31946,2024-106U,2025-11-05T07:03:39.878784,15.27582488,.00009629,43.0012,315.4263,148.6306,211.4603,0,U,59940,999,7212,.11962877E-4,.67E-6,0
STARLINK-31948,2024-106V,2025-11-05T06:55:06.514176,15.27579638,.00005675,43.0014,311.8184,183.6284,176.4564,0,U,59941,999,8153,.51342423E-4,.1151E-4,0
STARLINK-31900,2024-106W,2025-11-04T17:12:44.142048,15.27552496,.00001537,43.0010,317.9825,241.9882,118.0954,0,U,59942,999,8141,.16215635E-3,.4199E-4,0
STARLINK-31973,2024-106X,2025-11-04T18:10:04.603872,15.27580499,.00012024,43.0027,318.2856,291.6291,68.4433,0,U,59943,999,8141,.1189956E-5,-.229E-5,0
STARLINK-31966,2024-106Y,2025-11-04T18:04:31.796256,15.27581104,.00005462,43.0041,318.2476,286.8723,73.2069,0,U,59944,999,8146,.15082615E-4,.153E-5,0
STARLINK-11145 [DTC],2024-107A,2025-11-04T23:22:07.994496,15.69698942,.00012474,53.1567,146.3832,76.8743,283.2414,0,U,59945,999,8255,-.605892E-6,-.662E-5,0
STARLINK-11113 [DTC],2024-107C,2025-11-04T23:29:03.446304,15.69683508,.00016803,53.1572,145.6686,90.9111,269.2099,0,U,59947,999,8256,.29511643E-4,.2983E-4,0
STARLINK-11123 [DTC],2024-107D,2025-11-04T20:04:38.153280,15.69699242,.00012818,53.1587,146.9460,89.4923,270.6241,0,U,59948,999,8259,.951194E-6,-.474E-5,0
STARLINK-11138 [DTC],2024-107E,2025-11-05T06:18:09.190368,15.69710714,.00009615,53.1564,144.6144,103.9059,256.2066,0,U,59949,999,8266,.15154078E-4,.1248E-4,0
STARLINK-11130 [DTC],2024-107F,2025-11-04T19:57:34.122816,15.69704885,.00006607,53.1586,146.9143,73.3226,286.7865,0,U,59950,999,8253,.1032633E-5,-.463E-5,0
STARLINK-11124 [DTC],2024-107H,2025-11-05T06:25:13.762560,15.69702183,.00011318,53.1577,144.6498,85.6066,274.5081,0,U,59952,999,8267,.2872611E-5,-.241E-5,0
STARLINK-11143 [DTC],2024-107J,2025-11-05T06:11:05.258400,15.69713242,.00010066,53.1569,144.5851,85.5428,274.5705,0,U,59953,999,8260,.10143507E-4,.641E-5,0
STARLINK-11133 [DTC],2024-107K,2025-11-05T06:04:01.380864,15.69718063,.00012746,53.1563,144.5526,93.2068,266.9095,0,U,59954,999,8260,.20129262E-4,.1851E-4,0
STARLINK-11144 [DTC],2024-107L,2025-11-05T05:56:57.436800,15.69716542,.00003113,53.1642,144.5266,109.5848,250.5203,0,U,59955,999,8266,.12575621E-4,.937E-5,0
STARLINK-11134 [DTC],2024-107M,2025-11-04T23:43:10.460064,15.69700285,.00004891,53.1584,145.7447,85.7481,274.3593,0,U,59956,999,8249,-.319943E-5,-.975E-5,0
STARLINK-11142 [DTC],2024-107N,2025-11-04T23:36:06.665472,15.69699832,.00009628,53.1587,145.7105,96.0930,264.0198,0,U,59957,999,8257,.2469057E-5,-.289E-5,0
